CCSDS_OMM_VERS = 2.0
CREATION_DATE  = 
ORIGINATOR     = 

OBJECT_NAME    = COSMOS 1933
OBJECT_ID      = 1988-020A
CENTER_NAME    = EARTH
REF_FRAME      = TEME
TIME_SYSTEM    = UTC
MEAN_ELEMENT_THEORY = SGP/SGP4

EPOCH          = 2026-02-21T02:40:52.049856
MEAN_MOTION    = 15.17825802
ECCENTRICITY   = .00027557
INCLINATION    = 82.5103
RA_OF_ASC_NODE = 267.3165
ARG_OF_PERICENTER = 256.3809
MEAN_ANOMALY   = 103.7118

EPHEMERIS_TYPE = 0
CLASSIFICATION_TYPE = U
NORAD_CAT_ID   = 18958
ELEMENT_SET_NO = 999
REV_AT_EPOCH   = 4771
BSTAR          = .14795784E-3
MEAN_MOTION_DOT = .3022E-4
MEAN_MOTION_DDOT = 0

CCSDS_OMM_VERS = 2.0
CREATION_DATE  = 
ORIGINATOR     = 

OBJECT_NAME    = SL-3 R/B
OBJECT_ID      = 1988-032B
CENTER_NAME    = EARTH
REF_FRAME      = TEME
TIME_SYSTEM    = UTC
MEAN_ELEMENT_THEORY = SGP/SGP4

EPOCH          = 2026-02-21T04:57:32.844960
MEAN_MOTION    = 15.19687492
ECCENTRICITY   = .00242683
INCLINATION    = 97.5172
RA_OF_ASC_NODE = 35.5220
ARG_OF_PERICENTER = 293.5117
MEAN_ANOMALY   = 66.3567

EPHEMERIS_TYPE = 0
CLASSIFICATION_TYPE = U
NORAD_CAT_ID   = 19046
ELEMENT_SET_NO = 999
REV_AT_EPOCH   = 4960
BSTAR          = .2630049E-3
MEAN_MOTION_DOT = .5586E-4
MEAN_MOTION_DDOT = 0

CCSDS_OMM_VERS = 2.0
CREATION_DATE  = 
ORIGINATOR     = 

OBJECT_NAME    = SL-16 R/B
OBJECT_ID      = 1988-039B
CENTER_NAME    = EARTH
REF_FRAME      = TEME
TIME_SYSTEM    = UTC
MEAN_ELEMENT_THEORY = SGP/SGP4

EPOCH          = 2026-02-21T05:02:39.774912
MEAN_MOTION    = 14.19613795
ECCENTRICITY   = .00217073
INCLINATION    = 71.0136
RA_OF_ASC_NODE = 103.3967
ARG_OF_PERICENTER = 359.0344
MEAN_ANOMALY   = 1.0735

EPHEMERIS_TYPE = 0
CLASSIFICATION_TYPE = U
NORAD_CAT_ID   = 19120
ELEMENT_SET_NO = 999
REV_AT_EPOCH   = 95604
BSTAR          = -.39864312E-4
MEAN_MOTION_DOT = -.133E-5
MEAN_MOTION_DDOT = 0

CCSDS_OMM_VERS = 2.0
CREATION_DATE  = 
ORIGINATOR     = 

OBJECT_NAME    = COSMOS 1953
OBJECT_ID      = 1988-050A
CENTER_NAME    = EARTH
REF_FRAME      = TEME
TIME_SYSTEM    = UTC
MEAN_ELEMENT_THEORY = SGP/SGP4

EPOCH          = 2026-02-20T22:19:29.590176
MEAN_MOTION    = 15.28183578
ECCENTRICITY   = .001127
INCLINATION    = 82.5107
RA_OF_ASC_NODE = 175.0928
ARG_OF_PERICENTER = 178.4487
MEAN_ANOMALY   = 181.6790

EPHEMERIS_TYPE = 0
CLASSIFICATION_TYPE = U
NORAD_CAT_ID   = 19210
ELEMENT_SET_NO = 999
REV_AT_EPOCH   = 3522
BSTAR          = .31042E-3
MEAN_MOTION_DOT = .8573E-4
MEAN_MOTION_DDOT = 0

CCSDS_OMM_VERS = 2.0
CREATION_DATE  = 
ORIGINATOR     = 

OBJECT_NAME    = SL-8 R/B
OBJECT_ID      = 1988-053B
CENTER_NAME    = EARTH
REF_FRAME      = TEME
TIME_SYSTEM    = UTC
MEAN_ELEMENT_THEORY = SGP/SGP4

EPOCH          = 2026-02-21T05:49:26.898816
MEAN_MOTION    = 14.38905076
ECCENTRICITY   = .00209307
INCLINATION    = 74.0483
RA_OF_ASC_NODE = 142.7811
ARG_OF_PERICENTER = 324.6819
MEAN_ANOMALY   = 65.8635

EPHEMERIS_TYPE = 0
CLASSIFICATION_TYPE = U
NORAD_CAT_ID   = 19257
ELEMENT_SET_NO = 999
REV_AT_EPOCH   = 97423
BSTAR          = .80781167E-4
MEAN_MOTION_DOT = .223E-5
MEAN_MOTION_DDOT = 0

CCSDS_OMM_VERS = 2.0
CREATION_DATE  = 
ORIGINATOR     = 

OBJECT_NAME    = COSMOS 1975
OBJECT_ID      = 1988-093A
CENTER_NAME    = EARTH
REF_FRAME      = TEME
TIME_SYSTEM    = UTC
MEAN_ELEMENT_THEORY = SGP/SGP4

EPOCH          = 2026-02-21T05:18:32.544000
MEAN_MOTION    = 15.27779171
ECCENTRICITY   = .00107932
INCLINATION    = 82.5213
RA_OF_ASC_NODE = 134.2105
ARG_OF_PERICENTER = 222.6062
MEAN_ANOMALY   = 137.4341

EPHEMERIS_TYPE = 0
CLASSIFICATION_TYPE = U
NORAD_CAT_ID   = 19573
ELEMENT_SET_NO = 999
REV_AT_EPOCH   = 1689
BSTAR          = .29558235E-3
MEAN_MOTION_DOT = .8064E-4
MEAN_MOTION_DDOT = 0

CCSDS_OMM_VERS = 2.0
CREATION_DATE  = 
ORIGINATOR     = 

OBJECT_NAME    = SL-14 R/B
OBJECT_ID      = 1988-093B
CENTER_NAME    = EARTH
REF_FRAME      = TEME
TIME_SYSTEM    = UTC
MEAN_ELEMENT_THEORY = SGP/SGP4

EPOCH          = 2026-02-21T00:26:32.150688
MEAN_MOTION    = 14.85634871
ECCENTRICITY   = .00223285
INCLINATION    = 82.5280
RA_OF_ASC_NODE = 57.6973
ARG_OF_PERICENTER = 93.0641
MEAN_ANOMALY   = 286.6258

EPHEMERIS_TYPE = 0
CLASSIFICATION_TYPE = U
NORAD_CAT_ID   = 19574
ELEMENT_SET_NO = 999
REV_AT_EPOCH   = 99856
BSTAR          = .48805067E-4
MEAN_MOTION_DOT = .449E-5
MEAN_MOTION_DDOT = 0

CCSDS_OMM_VERS = 2.0
CREATION_DATE  = 
ORIGINATOR     = 

OBJECT_NAME    = SL-16 R/B
OBJECT_ID      = 1988-102B
CENTER_NAME    = EARTH
REF_FRAME      = TEME
TIME_SYSTEM    = UTC
MEAN_ELEMENT_THEORY = SGP/SGP4

EPOCH          = 2026-02-21T07:20:12.511968
MEAN_MOTION    = 14.16151895
ECCENTRICITY   = .00130631
INCLINATION    = 70.9996
RA_OF_ASC_NODE = 185.9668
ARG_OF_PERICENTER = 26.8600
MEAN_ANOMALY   = 333.3197

EPHEMERIS_TYPE = 0
CLASSIFICATION_TYPE = U
NORAD_CAT_ID   = 19650
ELEMENT_SET_NO = 999
REV_AT_EPOCH   = 92457
BSTAR          = -.45217039E-4
MEAN_MOTION_DOT = -.137E-5
MEAN_MOTION_DDOT = 0

CCSDS_OMM_VERS = 2.0
CREATION_DATE  = 
ORIGINATOR     = 

OBJECT_NAME    = INTERCOSMOS 24
OBJECT_ID      = 1989-080A
CENTER_NAME    = EARTH
REF_FRAME      = TEME
TIME_SYSTEM    = UTC
MEAN_ELEMENT_THEORY = SGP/SGP4

EPOCH          = 2026-02-21T04:50:58.495488
MEAN_MOTION    = 12.59531468
ECCENTRICITY   = .11872714
INCLINATION    = 82.6049
RA_OF_ASC_NODE = 115.1387
ARG_OF_PERICENTER = 331.1227
MEAN_ANOMALY   = 22.8829

EPHEMERIS_TYPE = 0
CLASSIFICATION_TYPE = U
NORAD_CAT_ID   = 20261
ELEMENT_SET_NO = 999
REV_AT_EPOCH   = 66472
BSTAR          = .1736204E-3
MEAN_MOTION_DOT = .591E-5
MEAN_MOTION_DDOT = 0

CCSDS_OMM_VERS = 2.0
CREATION_DATE  = 
ORIGINATOR     = 

OBJECT_NAME    = SL-14 R/B
OBJECT_ID      = 1989-080C
CENTER_NAME    = EARTH
REF_FRAME      = TEME
TIME_SYSTEM    = UTC
MEAN_ELEMENT_THEORY = SGP/SGP4

EPOCH          = 2026-02-21T07:29:06.594432
MEAN_MOTION    = 12.50470577
ECCENTRICITY   = .12298808
INCLINATION    = 82.5962
RA_OF_ASC_NODE = 183.6978
ARG_OF_PERICENTER = 222.1870
MEAN_ANOMALY   = 127.7969

EPHEMERIS_TYPE = 0
CLASSIFICATION_TYPE = U
NORAD_CAT_ID   = 20262
ELEMENT_SET_NO = 999
REV_AT_EPOCH   = 65810
BSTAR          = .1586271E-3
MEAN_MOTION_DOT = .53E-5
MEAN_MOTION_DDOT = 0

CCSDS_OMM_VERS = 2.0
CREATION_DATE  = 
ORIGINATOR     = 

OBJECT_NAME    = DELTA 1 R/B
OBJECT_ID      = 1989-089B
CENTER_NAME    = EARTH
REF_FRAME      = TEME
TIME_SYSTEM    = UTC
MEAN_ELEMENT_THEORY = SGP/SGP4

EPOCH          = 2026-02-21T03:15:01.336032
MEAN_MOTION    = 14.50648117
ECCENTRICITY   = .00692489
INCLINATION    = 97.0716
RA_OF_ASC_NODE = 262.2057
ARG_OF_PERICENTER = 173.7815
MEAN_ANOMALY   = 186.4259

EPHEMERIS_TYPE = 0
CLASSIFICATION_TYPE = U
NORAD_CAT_ID   = 20323
ELEMENT_SET_NO = 999
REV_AT_EPOCH   = 89333
BSTAR          = .75813832E-4
MEAN_MOTION_DOT = .272E-5
MEAN_MOTION_DDOT = 0

CCSDS_OMM_VERS = 2.0
CREATION_DATE  = 
ORIGINATOR     = 

OBJECT_NAME    = ARIANE 40 R/B
OBJECT_ID      = 1990-005H
CENTER_NAME    = EARTH
REF_FRAME      = TEME
TIME_SYSTEM    = UTC
MEAN_ELEMENT_THEORY = SGP/SGP4

EPOCH          = 2026-02-21T03:15:15.650784
MEAN_MOTION    = 14.39858506
ECCENTRICITY   = .00090582
INCLINATION    = 98.3122
RA_OF_ASC_NODE = 113.2873
ARG_OF_PERICENTER = 251.6240
MEAN_ANOMALY   = 108.3964

EPHEMERIS_TYPE = 0
CLASSIFICATION_TYPE = U
NORAD_CAT_ID   = 20443
ELEMENT_SET_NO = 999
REV_AT_EPOCH   = 89042
BSTAR          = .82254869E-4
MEAN_MOTION_DOT = .216E-5
MEAN_MOTION_DDOT = 0

