COSMOS 1933             
1 18958U 88020A   26052.11171354  .00003022  00000+0  14796-3 0  9993
2 18958  82.5103 267.3165 0002755 256.3809 103.7118 15.17825802 47713
SL-3 R/B                
1 19046U 88032B   26052.20663015  .00005586  00000+0  26300-3 0  9996
2 19046  97.5172  35.5220 0024268 293.5117  66.3567 15.19687492 49604
SL-16 R/B               
1 19120U 88039B   26052.21018258 -.00000133  00000+0 -39864-4 0  9995
2 19120  71.0136 103.3967 0021707 359.0344   1.0735 14.19613795956043
COSMOS 1953             
1 19210U 88050A   26051.93020359  .00008573  00000+0  31042-3 0  9994
2 19210  82.5107 175.0928 0011270 178.4487 181.6790 15.28183578 35222
SL-8 R/B                
1 19257U 88053B   26052.24267244  .00000223  00000+0  80781-4 0  9998
2 19257  74.0483 142.7811 0020930 324.6819  65.8635 14.38905076974234
COSMOS 1975             
1 19573U 88093A   26052.22121000  .00008064  00000+0  29558-3 0  9995
2 19573  82.5213 134.2105 0010793 222.6062 137.4341 15.27779171 16898
SL-14 R/B               
1 19574U 88093B   26052.01842767  .00000449  00000+0  48805-4 0  9999
2 19574  82.5280  57.6973 0022328  93.0641 286.6258 14.85634871998561
SL-16 R/B               
1 19650U 88102B   26052.30570037 -.00000137  00000+0 -45217-4 0  9995
2 19650  70.9996 185.9668 0013063  26.8600 333.3197 14.16151895924578
INTERCOSMOS 24          
1 20261U 89080A   26052.20206592  .00000591  00000+0  17362-3 0  9993
2 20261  82.6049 115.1387 1187271 331.1227  22.8829 12.59531468664724
SL-14 R/B               
1 20262U 89080C   26052.31188188  .00000530  00000+0  15863-3 0  9993
2 20262  82.5962 183.6978 1229880 222.1870 127.7969 12.50470577658109
DELTA 1 R/B             
1 20323U 89089B   26052.13543213  .00000272  00000+0  75814-4 0  9990
2 20323  97.0716 262.2057 0069248 173.7815 186.4259 14.50648117893335
ARIANE 40 R/B           
1 20443U 90005H   26052.13559781  .00000216  00000+0  82255-4 0  9995
2 20443  98.3122 113.2873 0009058 251.6240 108.3964 14.39858506890420
